{
    "links": {
        "self": "http://www.neowsapp.com/rest/v1/neo/3404125?api_key=iIulBulltgU6a56xZRHN4H3l9WmuAYTsLGpBGhQ2"
    },
    "id": "3404125",
    "neo_reference_id": "3404125",
    "name": "(2008 DW)",
    "designation": "2008 DW",
    "nasa_jpl_url": "http://ssd.jpl.nasa.gov/sbdb.cgi?sstr=3404125",
    "absolute_magnitude_h": 21.4,
    "estimated_diameter": {
        "kilometers": {
            "estimated_diameter_min": 0.1394938229,
            "estimated_diameter_max": 0.3119176705
        },
        "meters": {
            "estimated_diameter_min": 139.4938229344,
            "estimated_diameter_max": 311.9176705226
        },
        "miles": {
            "estimated_diameter_min": 0.0866774163,
            "estimated_diameter_max": 0.1938165949
        },
        "feet": {
            "estimated_diameter_min": 457.6569140361,
            "estimated_diameter_max": 1023.3519701574
        }
    },
    "is_potentially_hazardous_asteroid": false,
    "close_approach_data": [
        {
            "close_approach_date": "1994-03-23",
            "close_approach_date_full": "1994-Mar-23 11:01",
            "epoch_date_close_approach": 764420460000,
            "relative_velocity": {
                "kilometers_per_second": "3.4965265826",
                "kilometers_per_hour": "12587.4956974717",
                "miles_per_hour": "7821.3803126874"
            },
            "miss_distance": {
                "astronomical": "0.3117450797",
                "lunar": "121.2688360033",
                "kilometers": "46636399.906100239",
                "miles": "28978515.1500477382"
            },
            "orbiting_body": "Earth"
        },
        {
            "close_approach_date": "2008-03-13",
            "close_approach_date_full": "2008-Mar-13 05:02",
            "epoch_date_close_approach": 1205384520000,
            "relative_velocity": {
                "kilometers_per_second": "3.6215127866",
                "kilometers_per_hour": "13037.4460316422",
                "miles_per_hour": "8100.9619522724"
            },
            "miss_distance": {
                "astronomical": "0.2789816863",
                "lunar": "108.5238759707",
                "kilometers": "41735066.039488181",
                "miles": "25932967.5092556578"
            },
            "orbiting_body": "Earth"
        },
        {
            "close_approach_date": "2022-03-07",
            "close_approach_date_full": "2022-Mar-07 18:34",
            "epoch_date_close_approach": 1646678040000,
            "relative_velocity": {
                "kilometers_per_second": "3.6572131232",
                "kilometers_per_hour": "13165.9672433981",
                "miles_per_hour": "8180.8200352104"
            },
            "miss_distance": {
                "astronomical": "0.2844081675",
                "lunar": "110.6347771575",
                "kilometers": "42546856.068603225",
                "miles": "26437390.442945505"
            },
            "orbiting_body": "Earth"
        }
    ],
    "orbital_data": {
        "orbit_id": "24",
        "orbit_determination_date": "2017-04-06 09:04:17",
        "first_observation_date": "2008-02-26",
        "last_observation_date": "2008-05-22",
        "data_arc_in_days": 86,
        "observations_used": 99,
        "orbit_uncertainty": "5",
        "minimum_orbit_intersection": ".276058",
        "jupiter_tisserand_invariant": "3.762",
        "epoch_osculation": "2459000.5",
        "eccentricity": ".3616677494943332",
        "semi_major_axis": "1.987946223905192",
        "inclination": "6.744172695573974",
        "ascending_node_longitude": "161.3550616776219",
        "orbital_period": "1023.777015226915",
        "perihelion_distance": "1.268970186989643",
        "perihelion_argument": "10.14741306684414",
        "aphelion_distance": "2.706922260820741",
        "perihelion_time": "2458632.293058146495",
        "mean_anomaly": "129.47594749222",
        "mean_motion": ".3516390724206754",
        "equinox": "J2000",
        "orbit_class": {
            "orbit_class_type": "AMO",
            "orbit_class_description": "Near-Earth asteroid orbits similar to that of 1221 Amor",
            "orbit_class_range": "1.017 AU < q (perihelion) < 1.3 AU"
        }
    },
    "is_sentry_object": false
}